{
  "type": "FeatureCollection",
  "features": [
    {
      "type": "Feature",
      "properties": {
        "norad_id": 36987,
        "name": "FENGYUN 1C DEB",
        "group": "fengyun-1c-debris",
        "lat": -42.00660519406091,
        "lon": 40.21217291499876,
        "alt_km": 1332.6968956874607,
        "timestamp": "2025-12-15T04:01:20.740307+00:00",
        "meta_object_name": "FENGYUN 1C DEB",
        "meta_object_id": "1999-025EBT",
        "meta_epoch": "2025-12-13T09:53:47.603328",
        "meta_mean_motion": 13.458789,
        "meta_eccentricity": 0.03200024,
        "meta_inclination": 100.8191,
        "meta_ra_of_asc_node": 228.2353,
        "meta_arg_of_pericenter": 45.2977,
        "meta_mean_anomaly": 317.3745,
        "meta_ephemeris_type": 0,
        "meta_classification_type": "U",
        "meta_norad_cat_id": 36987,
        "meta_element_set_no": 999,
        "meta_rev_at_epoch": 60886,
        "meta_bstar": 0.0017061626,
        "meta_mean_motion_dot": 1.337e-05,
        "meta_mean_motion_ddot": 0,
        "tle_line1": "1 36987U 99025EBT 25347.41235652  .00001337  00000+0  17062-2 0  9998",
        "tle_line2": "2 36987 100.8191 228.2353 0320002  45.2977 317.3745 13.45878900608864"
      },
      "geometry": {
        "type": "Point",
        "coordinates": [
          40.21217291499876,
          -42.00660519406091
        ]
      }
    },
    {
      "type": "Feature",
      "properties": {
        "norad_id": 36990,
        "name": "FENGYUN 1C DEB",
        "group": "fengyun-1c-debris",
        "lat": 25.81430600007418,
        "lon": 120.08917346382324,
        "alt_km": 1202.9167911385657,
        "timestamp": "2025-12-15T04:01:20.740317+00:00",
        "meta_object_name": "FENGYUN 1C DEB",
        "meta_object_id": "1999-025EBW",
        "meta_epoch": "2025-12-05T02:36:38.289600",
        "meta_mean_motion": 13.56914719,
        "meta_eccentricity": 0.0292772,
        "meta_inclination": 96.5839,
        "meta_ra_of_asc_node": 290.134,
        "meta_arg_of_pericenter": 44.0413,
        "meta_mean_anomaly": 318.3658,
        "meta_ephemeris_type": 0,
        "meta_classification_type": "U",
        "meta_norad_cat_id": 36990,
        "meta_element_set_no": 999,
        "meta_rev_at_epoch": 82784,
        "meta_bstar": 0.0013157618,
        "meta_mean_motion_dot": 1.212e-05,
        "meta_mean_motion_ddot": 0,
        "tle_line1": "1 36990U 99025EBW 25339.10877650  .00001212  00000+0  13158-2 0  9993",
        "tle_line2": "2 36990  96.5839 290.1340 0292772  44.0413 318.3658 13.56914719827842"
      },
      "geometry": {
        "type": "Point",
        "coordinates": [
          120.08917346382324,
          25.81430600007418
        ]
      }
    },
    {
      "type": "Feature",
      "properties": {
        "norad_id": 36994,
        "name": "FENGYUN 1C DEB",
        "group": "fengyun-1c-debris",
        "lat": -65.93686205520923,
        "lon": 111.3378506879858,
        "alt_km": 867.7108008159057,
        "timestamp": "2025-12-15T04:01:20.740328+00:00",
        "meta_object_name": "FENGYUN 1C DEB",
        "meta_object_id": "1999-025ECA",
        "meta_epoch": "2025-12-13T04:12:31.349376",
        "meta_mean_motion": 13.90786849,
        "meta_eccentricity": 0.01145947,
        "meta_inclination": 98.643,
        "meta_ra_of_asc_node": 309.3977,
        "meta_arg_of_pericenter": 291.9677,
        "meta_mean_anomaly": 66.9338,
        "meta_ephemeris_type": 0,
        "meta_classification_type": "U",
        "meta_norad_cat_id": 36994,
        "meta_element_set_no": 999,
        "meta_rev_at_epoch": 80913,
        "meta_bstar": 0.0002678027,
        "meta_mean_motion_dot": 3.12e-06,
        "meta_mean_motion_ddot": 0,
        "tle_line1": "1 36994U 99025ECA 25347.17536284  .00000312  00000+0  26780-3 0  9994",
        "tle_line2": "2 36994  98.6430 309.3977 0114594 291.9677  66.9338 13.90786849809137"
      },
      "geometry": {
        "type": "Point",
        "coordinates": [
          111.3378506879858,
          -65.93686205520923
        ]
      }
    },
    {
      "type": "Feature",
      "properties": {
        "norad_id": 36995,
        "name": "FENGYUN 1C DEB",
        "group": "fengyun-1c-debris",
        "lat": -80.13835005347727,
        "lon": -74.73993261467578,
        "alt_km": 859.8304771729181,
        "timestamp": "2025-12-15T04:01:20.740338+00:00",
        "meta_object_name": "FENGYUN 1C DEB",
        "meta_object_id": "1999-025ECB",
        "meta_epoch": "2025-12-13T09:41:23.797824",
        "meta_mean_motion": 14.04866862,
        "meta_eccentricity": 0.00385614,
        "meta_inclination": 98.3431,
        "meta_ra_of_asc_node": 226.0575,
        "meta_arg_of_pericenter": 309.2932,
        "meta_mean_anomaly": 50.4819,
        "meta_ephemeris_type": 0,
        "meta_classification_type": "U",
        "meta_norad_cat_id": 36995,
        "meta_element_set_no": 999,
        "meta_rev_at_epoch": 63566,
        "meta_bstar": 5.457857e-05,
        "meta_mean_motion_dot": 4.9e-07,
        "meta_mean_motion_ddot": 0,
        "tle_line1": "1 36995U 99025ECB 25347.40374766  .00000049  00000+0  54579-4 0  9991",
        "tle_line2": "2 36995  98.3431 226.0575 0038561 309.2932  50.4819 14.04866862635668"
      },
      "geometry": {
        "type": "Point",
        "coordinates": [
          -74.73993261467578,
          -80.13835005347727
        ]
      }
    },
    {
      "type": "Feature",
      "properties": {
        "norad_id": 36996,
        "name": "FENGYUN 1C DEB",
        "group": "fengyun-1c-debris",
        "lat": 80.55825157910279,
        "lon": 80.78410590635288,
        "alt_km": 884.1522703612354,
        "timestamp": "2025-12-15T04:01:20.740348+00:00",
        "meta_object_name": "FENGYUN 1C DEB",
        "meta_object_id": "1999-025ECC",
        "meta_epoch": "2025-12-11T16:18:59.778720",
        "meta_mean_motion": 14.11531157,
        "meta_eccentricity": 0.02544583,
        "meta_inclination": 98.2241,
        "meta_ra_of_asc_node": 138.0024,
        "meta_arg_of_pericenter": 352.2337,
        "meta_mean_anomaly": 17.2038,
        "meta_ephemeris_type": 0,
        "meta_classification_type": "U",
        "meta_norad_cat_id": 36996,
        "meta_element_set_no": 999,
        "meta_rev_at_epoch": 59677,
        "meta_bstar": 0.0011778893,
        "meta_mean_motion_dot": 2.857e-05,
        "meta_mean_motion_ddot": 0,
        "tle_line1": "1 36996U 99025ECC 25345.67985855  .00002857  00000+0  11779-2 0  9998",
        "tle_line2": "2 36996  98.2241 138.0024 0254458 352.2337  17.2038 14.11531157596776"
      },
      "geometry": {
        "type": "Point",
        "coordinates": [
          80.78410590635288,
          80.55825157910279
        ]
      }
    },
    {
      "type": "Feature",
      "properties": {
        "norad_id": 37003,
        "name": "FENGYUN 1C DEB",
        "group": "fengyun-1c-debris",
        "lat": -0.11163834378186417,
        "lon": 12.713657433497522,
        "alt_km": 973.9015420175683,
        "timestamp": "2025-12-15T04:01:20.740359+00:00",
        "meta_object_name": "FENGYUN 1C DEB",
        "meta_object_id": "1999-025ECK",
        "meta_epoch": "2025-12-13T07:22:52.136832",
        "meta_mean_motion": 13.96224501,
        "meta_eccentricity": 0.00967757,
        "meta_inclination": 98.847,
        "meta_ra_of_asc_node": 10.9087,
        "meta_arg_of_pericenter": 160.7897,
        "meta_mean_anomaly": 215.4008,
        "meta_ephemeris_type": 0,
        "meta_classification_type": "U",
        "meta_norad_cat_id": 37003,
        "meta_element_set_no": 999,
        "meta_rev_at_epoch": 60665,
        "meta_bstar": 0.00090200288,
        "meta_mean_motion_dot": 1.249e-05,
        "meta_mean_motion_ddot": 0,
        "tle_line1": "1 37003U 99025ECK 25347.30754788  .00001249  00000+0  90200-3 0  9990",
        "tle_line2": "2 37003  98.8470  10.9087 0096775 160.7897 215.4008 13.96224501606654"
      },
      "geometry": {
        "type": "Point",
        "coordinates": [
          12.713657433497522,
          -0.11163834378186417
        ]
      }
    },
    {
      "type": "Feature",
      "properties": {
        "norad_id": 37006,
        "name": "FENGYUN 1C DEB",
        "group": "fengyun-1c-debris",
        "lat": 60.45347287024855,
        "lon": -138.81952213780824,
        "alt_km": 904.6621395686552,
        "timestamp": "2025-12-15T04:01:20.740369+00:00",
        "meta_object_name": "FENGYUN 1C DEB",
        "meta_object_id": "1999-025ECN",
        "meta_epoch": "2025-12-13T23:33:02.281824",
        "meta_mean_motion": 14.48911917,
        "meta_eccentricity": 0.02552652,
        "meta_inclination": 99.2982,
        "meta_ra_of_asc_node": 236.6727,
        "meta_arg_of_pericenter": 244.4177,
        "meta_mean_anomaly": 113.0432,
        "meta_ephemeris_type": 0,
        "meta_classification_type": "U",
        "meta_norad_cat_id": 37006,
        "meta_element_set_no": 999,
        "meta_rev_at_epoch": 65132,
        "meta_bstar": 0.00085332539,
        "meta_mean_motion_dot": 4.828e-05,
        "meta_mean_motion_ddot": 0,
        "tle_line1": "1 37006U 99025ECN 25347.98127641  .00004828  00000+0  85333-3 0  9996",
        "tle_line2": "2 37006  99.2982 236.6727 0255265 244.4177 113.0432 14.48911917651320"
      },
      "geometry": {
        "type": "Point",
        "coordinates": [
          -138.81952213780824,
          60.45347287024855
        ]
      }
    }
  ]
}